{"type": "FeatureCollection", "features": [ {"type": "Feature", "properties": {"norad_id": 31057, "name": "FENGYUN 1C DEB", "group": "fengyun-1c-debris", "lat": 73.88665308144486, "lon": -127.79118400525272, "alt_km": 721.2663454467256, "timestamp": "2025-12-05T11:32:56.298913+00:00", "meta": {"OBJECT_NAME": "FENGYUN 1C DEB", "OBJECT_ID": "1999-025BFB", "EPOCH": "2025-11-15T08:50:16.083744", "MEAN_MOTION": 14.78766925, "ECCENTRICITY": 0.01394535, "INCLINATION": 99.2623, "RA_OF_ASC_NODE": 354.6749, "ARG_OF_PERICENTER": 337.6801, "MEAN_ANOMALY": 21.8374, "EPHEMERIS_TYPE": 0, "CLASSIFICATION_TYPE": "U", "NORAD_CAT_ID": 31057, "ELEMENT_SET_NO": 999, "REV_AT_EPOCH": 61548, "BSTAR": 0.0011048389, "MEAN_MOTION_DOT": 9.496e-05, "MEAN_MOTION_DDOT": 0}, "tle": {"line1": "1 31057U 99025BFB 25319.36824171  .00009496  00000+0  11048-2 0  9996", "line2": "2 31057  99.2623 354.6749 0139453 337.6801  21.8374 14.78766925615484"}}, "geometry": {"type": "Point", "coordinates": [-127.79118400525272, 73.88665308144486]}}, {"type": "Feature", "properties": {"norad_id": 31058, "name": "FENGYUN 1C DEB", "group": "fengyun-1c-debris", "lat": -9.556869449115265, "lon": -70.94323802064173, "alt_km": 694.6473246862806, "timestamp": "2025-12-05T11:32:56.298924+00:00", "meta": {"OBJECT_NAME": "FENGYUN 1C DEB", "OBJECT_ID": "1999-025BFC", "EPOCH": "2025-11-30T14:27:22.580352", "MEAN_MOTION": 14.76018692, "ECCENTRICITY": 0.0094738, "INCLINATION": 99.5638, "RA_OF_ASC_NODE": 281.6638, "ARG_OF_PERICENTER": 143.0864, "MEAN_ANOMALY": 217.691, "EPHEMERIS_TYPE": 0, "CLASSIFICATION_TYPE": "U", "NORAD_CAT_ID": 31058, "ELEMENT_SET_NO": 999, "REV_AT_EPOCH": 99370, "BSTAR": 0.0011184, "MEAN_MOTION_DOT": 8.226e-05, "MEAN_MOTION_DDOT": 0}, "tle": {"line1": "1 31058U 99025BFC 25334.60234468  .00008226  00000+0  11184-2 0  9996", "line2": "2 31058  99.5638 281.6638 0094738 143.0864 217.6910 14.76018692993708"}}, "geometry": {"type": "Point", "coordinates": [-70.94323802064173, -9.556869449115265]}}, {"type": "Feature", "properties": {"norad_id": 31062, "name": "FENGYUN 1C DEB", "group": "fengyun-1c-debris", "lat": -78.58098775692525, "lon": -69.39495509880746, "alt_km": 950.2484529314024, "timestamp": "2025-12-05T11:32:56.298933+00:00", "meta": {"OBJECT_NAME": "FENGYUN 1C DEB", "OBJECT_ID": "1999-025BFG", "EPOCH": "2025-12-03T11:16:21.393984", "MEAN_MOTION": 13.75683506, "ECCENTRICITY": 0.01718974, "INCLINATION": 98.9971, "RA_OF_ASC_NODE": 160.3686, "ARG_OF_PERICENTER": 342.5381, "MEAN_ANOMALY": 45.6643, "EPHEMERIS_TYPE": 0, "CLASSIFICATION_TYPE": "U", "NORAD_CAT_ID": 31062, "ELEMENT_SET_NO": 999, "REV_AT_EPOCH": 94106, "BSTAR": 0.00038350124, "MEAN_MOTION_DOT": 3.71e-06, "MEAN_MOTION_DDOT": 0}, "tle": {"line1": "1 31062U 99025BFG 25337.46969206  .00000371  00000+0  38350-3 0  9991", "line2": "2 31062  98.9971 160.3686 0171897 342.5381  45.6643 13.75683506941068"}}, "geometry": {"type": "Point", "coordinates": [-69.39495509880746, -78.58098775692525]}}, {"type": "Feature", "properties": {"norad_id": 31064, "name": "FENGYUN 1C DEB", "group": "fengyun-1c-debris", "lat": -74.39042915218425, "lon": -4.959667895867831, "alt_km": 850.2860239980264, "timestamp": "2025-12-05T11:32:56.298944+00:00", "meta": {"OBJECT_NAME": "FENGYUN 1C DEB", "OBJECT_ID": "1999-025BFJ", "EPOCH": "2025-12-04T05:33:55.015200", "MEAN_MOTION": 14.22105697, "ECCENTRICITY": 0.0242037, "INCLINATION": 98.5732, "RA_OF_ASC_NODE": 321.1443, "ARG_OF_PERICENTER": 26.2907, "MEAN_ANOMALY": 347.1939, "EPHEMERIS_TYPE": 0, "CLASSIFICATION_TYPE": "U", "NORAD_CAT_ID": 31064, "ELEMENT_SET_NO": 999, "REV_AT_EPOCH": 97134, "BSTAR": 0.00068221, "MEAN_MOTION_DOT": 1.99e-05, "MEAN_MOTION_DDOT": 0}, "tle": {"line1": "1 31064U 99025BFJ 25338.23188675  .00001990  00000+0  68221-3 0  9990", "line2": "2 31064  98.5732 321.1443 0242037  26.2907 347.1939 14.22105697971349"}}, "geometry": {"type": "Point", "coordinates": [-4.959667895867831, -74.39042915218425]}}, {"type": "Feature", "properties": {"norad_id": 31065, "name": "FENGYUN 1C DEB", "group": "fengyun-1c-debris", "lat": 57.52715165085216, "lon": -14.724580271616144, "alt_km": 766.9012389368954, "timestamp": "2025-12-05T11:32:56.298954+00:00", "meta": {"OBJECT_NAME": "FENGYUN 1C DEB", "OBJECT_ID": "1999-025BFK", "EPOCH": "2025-12-04T08:22:25.849920", "MEAN_MOTION": 14.2811927, "ECCENTRICITY": 0.0035761, "INCLINATION": 98.4647, "RA_OF_ASC_NODE": 357.7103, "ARG_OF_PERICENTER": 55.9686, "MEAN_ANOMALY": 304.4883, "EPHEMERIS_TYPE": 0, "CLASSIFICATION_TYPE": "U", "NORAD_CAT_ID": 31065, "ELEMENT_SET_NO": 999, "REV_AT_EPOCH": 64458, "BSTAR": 0.0019014, "MEAN_MOTION_DOT": 4.721e-05, "MEAN_MOTION_DDOT": 0}, "tle": {"line1": "1 31065U 99025BFK 25338.34891030  .00004721  00000+0  19014-2 0  9999", "line2": "2 31065  98.4647 357.7103 0035761  55.9686 304.4883 14.28119270644584"}}, "geometry": {"type": "Point", "coordinates": [-14.724580271616144, 57.52715165085216]}}, {"type": "Feature", "properties": {"norad_id": 31068, "name": "FENGYUN 1C DEB", "group": "fengyun-1c-debris", "lat": -54.026306986907, "lon": 129.87974688935572, "alt_km": 880.0846513873084, "timestamp": "2025-12-05T11:32:56.298964+00:00", "meta": {"OBJECT_NAME": "FENGYUN 1C DEB", "OBJECT_ID": "1999-025BFN", "EPOCH": "2025-12-01T16:08:08.292480", "MEAN_MOTION": 14.09179849, "ECCENTRICITY": 0.01652659, "INCLINATION": 98.6281, "RA_OF_ASC_NODE": 318.3046, "ARG_OF_PERICENTER": 149.4805, "MEAN_ANOMALY": 211.611, "EPHEMERIS_TYPE": 0, "CLASSIFICATION_TYPE": "U", "NORAD_CAT_ID": 31068, "ELEMENT_SET_NO": 999, "REV_AT_EPOCH": 96199, "BSTAR": 0.00025218093, "MEAN_MOTION_DOT": 4.56e-06, "MEAN_MOTION_DDOT": 0}, "tle": {"line1": "1 31068U 99025BFN 25335.67231820  .00000456  00000+0  25218-3 0  9995", "line2": "2 31068  98.6281 318.3046 0165265 149.4805 211.6110 14.09179849961993"}}, "geometry": {"type": "Point", "coordinates": [129.87974688935572, -54.026306986907]}}, {"type": "Feature", "properties": {"norad_id": 31069, "name": "FENGYUN 1C DEB", "group": "fengyun-1c-debris", "lat": 53.954747619728714, "lon": 126.3757864486733, "alt_km": 644.1788286901829, "timestamp": "2025-12-05T11:32:56.298974+00:00", "meta": {"OBJECT_NAME": "FENGYUN 1C DEB", "OBJECT_ID": "1999-025BFP", "EPOCH": "2025-12-01T16:38:56.126688", "MEAN_MOTION": 14.5697427, "ECCENTRICITY": 0.01048097, "INCLINATION": 99.099, "RA_OF_ASC_NODE": 134.9638, "ARG_OF_PERICENTER": 110.7051, "MEAN_ANOMALY": 250.5416, "EPHEMERIS_TYPE": 0, "CLASSIFICATION_TYPE": "U", "NORAD_CAT_ID": 31069, "ELEMENT_SET_NO": 999, "REV_AT_EPOCH": 98525, "BSTAR": 0.00086894232, "MEAN_MOTION_DOT": 4.152e-05, "MEAN_MOTION_DDOT": 0}, "tle": {"line1": "1 31069U 99025BFP 25335.69370517  .00004152  00000+0  86894-3 0  9999", "line2": "2 31069  99.0990 134.9638 0104809 110.7051 250.5416 14.56974270985255"}}, "geometry": {"type": "Point", "coordinates": [126.3757864486733, 53.954747619728714]}}, {"type": "Feature", "properties": {"norad_id": 31071, "name": "FENGYUN 1C DEB", "group": "fengyun-1c-debris", "lat": -80.94119035840858, "lon": 149.48415080870998, "alt_km": 692.248613713211, "timestamp": "2025-12-05T11:32:56.298984+00:00", "meta": {"OBJECT_NAME": "FENGYUN 1C DEB", "OBJECT_ID": "1999-025BFR", "EPOCH": "2025-11-28T11:19:27.812352", "MEAN_MOTION": 14.52441146, "ECCENTRICITY": 0.00557097, "INCLINATION": 99.0422, "RA_OF_ASC_NODE": 49.1199, "ARG_OF_PERICENTER": 325.3377, "MEAN_ANOMALY": 34.419, "EPHEMERIS_TYPE": 0, "CLASSIFICATION_TYPE": "U", "NORAD_CAT_ID": 31071, "ELEMENT_SET_NO": 999, "REV_AT_EPOCH": 65287, "BSTAR": 0.0010703966, "MEAN_MOTION_DOT": 4.402e-05, "MEAN_MOTION_DDOT": 0}, "tle": {"line1": "1 31071U 99025BFR 25332.47184968  .00004402  00000+0  10704-2 0  9992", "line2": "2 31071  99.0422  49.1199 0055709 325.3377  34.4190 14.52441146652870"}}, "geometry": {"type": "Point", "coordinates": [149.48415080870998, -80.94119035840858]}}, {"type": "Feature", "properties": {"norad_id": 31072, "name": "FENGYUN 1C DEB", "group": "fengyun-1c-debris", "lat": 59.04591488483109, "lon": -179.68862242633486, "alt_km": 649.9959964848103, "timestamp": "2025-12-05T11:32:56.298994+00:00", "meta": {"OBJECT_NAME": "FENGYUN 1C DEB", "OBJECT_ID": "1999-025BFS", "EPOCH": "2025-12-03T11:49:48.033120", "MEAN_MOTION": 14.25435974, "ECCENTRICITY": 0.02105031, "INCLINATION": 99.3327, "RA_OF_ASC_NODE": 342.282, "ARG_OF_PERICENTER": 124.0522, "MEAN_ANOMALY": 238.0839, "EPHEMERIS_TYPE": 0, "CLASSIFICATION_TYPE": "U", "NORAD_CAT_ID": 31072, "ELEMENT_SET_NO": 999, "REV_AT_EPOCH": 96511, "BSTAR": 0.00072869121, "MEAN_MOTION_DOT": 2.117e-05, "MEAN_MOTION_DDOT": 0}, "tle": {"line1": "1 31072U 99025BFS 25337.49291705  .00002117  00000+0  72869-3 0  9990", "line2": "2 31072  99.3327 342.2820 0210503 124.0522 238.0839 14.25435974965115"}}, "geometry": {"type": "Point", "coordinates": [-179.68862242633486, 59.04591488483109]}}, {"type": "Feature", "properties": {"norad_id": 31073, "name": "FENGYUN 1C DEB", "group": "fengyun-1c-debris", "lat": 46.936728063400366, "lon": 18.819454206773358, "alt_km": 838.0091684532945, "timestamp": "2025-12-05T11:32:56.299005+00:00", "meta": {"OBJECT_NAME": "FENGYUN 1C DEB", "OBJECT_ID": "1999-025BFT", "EPOCH": "2025-12-03T01:37:19.680960", "MEAN_MOTION": 14.24707889, "ECCENTRICITY": 0.00458738, "INCLINATION": 99.2206, "RA_OF_ASC_NODE": 186.2773, "ARG_OF_PERICENTER": 313.0184, "MEAN_ANOMALY": 46.7154, "EPHEMERIS_TYPE": 0, "CLASSIFICATION_TYPE": "U", "NORAD_CAT_ID": 31073, "ELEMENT_SET_NO": 999, "REV_AT_EPOCH": 96945, "BSTAR": 0.0015631033, "MEAN_MOTION_DOT": 3.631e-05, "MEAN_MOTION_DDOT": 0}, "tle": {"line1": "1 31073U 99025BFT 25337.06758890  .00003631  00000+0  15631-2 0  9992", "line2": "2 31073  99.2206 186.2773 0045873 313.0184  46.7154 14.24707889969455"}}, "geometry": {"type": "Point", "coordinates": [18.819454206773358, 46.936728063400366]}}]}